OBJECT_NAME,OBJECT_ID,EPOCH,MEAN_MOTION,ECCENTRICITY,INCLINATION,RA_OF_ASC_NODE,ARG_OF_PERICENTER,MEAN_ANOMALY,EPHEMERIS_TYPE,CLASSIFICATION_TYPE,NORAD_CAT_ID,ELEMENT_SET_NO,REV_AT_EPOCH,BSTAR,MEAN_MOTION_DOT,MEAN_MOTION_DDOT
STARLINK-34375,2025-133F,2026-06-10T09:32:30.820416,15.34364316,.00014775,53.1598,43.2574,95.7140,264.4031,0,U,64477,999,5542,.73879728E-3,.24639E-3,0
STARLINK-34490,2025-133G,2026-06-10T09:22:15.257568,15.30183957,.00011959,53.1590,46.0492,86.5929,273.5209,0,U,64478,999,5538,.66523605E-3,.19385E-3,0
STARLINK-34528,2025-133H,2026-06-10T09:29:29.789088,15.34398400,.00013321,53.1604,43.2420,93.7677,266.3478,0,U,64479,999,5540,.66459409E-3,.22143E-3,0
STARLINK-34518,2025-133J,2026-06-10T09:17:41.970048,15.30205641,.00010902,53.1588,46.0278,93.4167,266.6958,0,U,64480,999,5522,.55555284E-3,.16133E-3,0
STARLINK-34526,2025-133K,2026-06-10T09:13:08.391360,15.30210549,.00014309,53.1595,46.0100,80.2487,279.8675,0,U,64481,999,5527,.69435253E-3,.20268E-3,0
STARLINK-34527,2025-133L,2026-06-10T08:59:27.387456,15.30179465,.00011721,53.1591,45.9499,98.0908,262.0226,0,U,64482,999,5538,.58290927E-3,.16933E-3,0
STARLINK-34420,2025-133M,2026-06-09T23:26:02.168736,15.30235957,.00012485,53.1583,47.7310,97.6338,262.4805,0,U,64483,999,5532,.88506612E-3,.25975E-3,0
STARLINK-34509,2025-133N,2026-06-09T23:21:37.929888,15.30206457,.00012136,53.1581,48.4200,87.5113,272.6027,0,U,64484,999,5531,.62633626E-3,.1824E-3,0
STARLINK-34409,2025-133P,2026-06-09T23:18:33.841728,15.30223527,.00010226,53.1583,48.4065,108.2343,251.8769,0,U,64485,999,5531,.28616966E-3,.8132E-4,0
STARLINK-34520,2025-133Q,2026-06-09T23:14:01.966848,15.30206073,.00014663,53.1596,48.3897,99.8735,260.2432,0,U,64486,999,5531,.44964719E-3,.12984E-3,0
STARLINK-34477,2025-133R,2026-06-09T23:09:28.305216,15.30214788,.00014355,53.1599,48.3627,93.0932,267.0233,0,U,64487,999,5530,.4844212E-3,.14022E-3,0
STARLINK-34217,2025-133S,2026-06-09T23:04:54.845760,15.30215742,.00009506,53.1595,48.3481,87.2686,272.8424,0,U,64488,999,5520,.67106027E-3,.19578E-3,0
STARLINK-34307,2025-133T,2026-06-10T09:58:43.241664,15.30215025,.00011654,53.1598,46.2023,86.2813,273.8321,0,U,64489,999,5536,.62506292E-3,.18207E-3,0
STARLINK-34505,2025-133U,2026-06-10T09:54:09.521280,15.30223409,.00010542,53.1610,46.1820,77.8516,282.2603,0,U,64490,999,5536,.13653688E-2,.40328E-3,0
STARLINK-34530,2025-133V,2026-06-10T09:44:38.040576,15.34408495,.00013339,53.1595,43.3040,83.1009,277.0145,0,U,64491,999,5539,.1159668E-2,.3902E-3,0
STARLINK-34522,2025-133W,2026-06-10T09:38:34.343232,15.34412652,.0001284,53.1599,43.2762,87.3100,272.8049,0,U,64492,999,5542,.10661151E-2,.35831E-3,0
STARLINK-34462,2025-133X,2026-06-10T09:35:32.233632,15.34417185,.00012342,53.1597,43.2640,81.3956,278.7187,0,U,64493,999,5542,.66447538E-3,.22153E-3,0
STARLINK-34226,2025-133Y,2026-06-10T06:09:53.790912,15.31686414,.0001483,53.1601,46.6297,89.1778,270.9393,0,U,64494,999,5519,.49861E-3,.15132E-3,0
STARLINK-34364,2025-133Z,2026-06-09T23:00:03.077280,15.34406799,.00010755,53.1595,44.7560,85.4160,274.6965,0,U,64495,999,5536,.65046445E-3,.21669E-3,0
STARLINK-34363,2025-133AB,2026-06-10T09:26:27.397824,15.34410699,.00013977,53.1605,43.2210,86.9222,273.1940,0,U,64497,999,5542,.10511164E-2,.35317E-3,0
STARLINK-34427,2025-133AC,2026-06-09T23:56:25.046304,15.30209337,.00013311,53.1601,47.8544,86.5379,273.5774,0,U,64498,999,5532,.89257028E-3,.26177E-3,0
KUIPER-00039,2025-134A,2026-06-10T06:44:56.956128,14.79937375,.00004255,51.8994,183.6654,82.3756,277.7255,0,U,64500,999,5378,.29339007E-3,.2016E-4,0
KUIPER-00040,2025-134B,2026-06-10T08:55:17.158368,14.79935728,.0000282,51.8967,193.3545,26.6068,333.4909,0,U,64501,999,5365,.29121506E-3,.2E-4,0
KUIPER-00041,2025-134C,2026-06-10T09:40:01.754112,14.79929090,.00005749,51.8976,195.6002,92.3070,267.7958,0,U,64502,999,5362,.28346586E-3,.194E-4,0
KUIPER-00042,2025-134D,2026-06-10T08:59:10.188672,14.79932193,.00004644,51.8977,190.7049,80.8078,279.2936,0,U,64503,999,5369,.2818597E-3,.1928E-4,0
KUIPER-00043,2025-134E,2026-06-10T07:33:34.697952,14.79926316,.0000427,51.9004,183.4567,74.3698,285.7312,0,U,64504,999,5379,.26629E-3,.1809E-4,0
KUIPER-00044,2025-134F,2026-06-10T08:51:24.200640,14.79934215,.00005243,51.8984,195.7297,91.4431,268.6592,0,U,64505,999,5362,.29570499E-3,.2034E-4,0
KUIPER-00046,2025-134G,2026-06-10T08:06:40.036032,14.79925551,.00004879,51.8972,193.3474,90.0101,270.0917,0,U,64506,999,5365,.28492216E-3,.1951E-4,0
KUIPER-00047,2025-134H,2026-06-10T06:23:30.580224,14.79934781,.0000514,51.8980,166.1845,61.0135,299.0878,0,U,64507,999,5402,.25568E-3,.1729E-4,0
KUIPER-00048,2025-134J,2026-06-10T07:12:07.547904,14.79928879,.0000407,51.8976,166.0495,61.1164,298.9840,0,U,64508,999,5403,-.39288E-4,-.52E-5,0
KUIPER-00049,2025-134K,2026-06-10T07:41:20.133024,14.79926700,.0000449,51.8988,178.4203,72.8659,287.2352,0,U,64509,999,5386,.27244E-3,.1856E-4,0
KUIPER-00050,2025-134L,2026-06-10T06:31:16.501728,14.79930091,.0000455,51.8992,161.1580,61.8575,298.2433,0,U,64510,999,5410,.28623E-3,.1961E-4,0
KUIPER-00051,2025-134M,2026-06-10T07:07:24.029760,14.79891170,.000122,51.8994,177.2214,55.9169,304.1909,0,U,64511,999,5387,.25908E-3,.1752E-4,0
KUIPER-00053,2025-134P,2026-06-10T06:58:18.971904,14.81692253,.0001127,51.8995,172.9118,162.5034,197.5968,0,U,64513,999,5393,.25123E-3,.1773E-4,0
KUIPER-00054,2025-134Q,2026-06-10T07:08:15.570816,14.79932510,.0000633,51.8968,168.5416,28.9174,331.1823,0,U,64514,999,5399,.27104E-3,.1846E-4,0
KUIPER-00055,2025-134R,2026-06-10T14:02:21.436512,14.79915213,.00008512,51.9004,119.8916,82.1312,277.9747,0,U,64515,999,5470,.38936635E-3,.2747E-4,0
KUIPER-00056,2025-134S,2026-06-10T07:49:06.547872,14.79934640,.00004229,51.9002,173.4983,70.1659,289.9348,0,U,64516,999,5393,.28047294E-3,.1918E-4,0
KUIPER-00057,2025-134T,2026-06-10T07:37:26.698368,14.79897558,.00003706,51.8933,180.9731,87.7021,272.3984,0,U,64517,999,5382,-.49365837E-2,-.37613E-3,0
KUIPER-00058,2025-134U,2026-06-10T05:19:21.022176,14.79931599,.0000441,51.8996,176.3650,82.9063,277.1950,0,U,64518,999,5388,.27418884E-3,.187E-4,0
KUIPER-00059,2025-134V,2026-06-10T07:04:21.691200,14.79928739,.0000512,51.8990,171.0858,84.2881,275.8140,0,U,64519,999,5396,.26188E-3,.1776E-4,0
KUIPER-00060,2025-134W,2026-06-10T07:52:58.899936,14.79942009,.00004797,51.9006,170.9918,77.0746,283.0269,0,U,64520,999,5395,.27957416E-3,.1911E-4,0
KUIPER-00061,2025-134X,2026-06-08T07:52:44.003712,14.79753161,.00004357,51.8981,187.2975,359.3372,0.7590,0,U,64521,999,5355,-.78116182E-3,-.6145E-4,0
KUIPER-00062,2025-134Y,2026-06-10T08:26:01.612320,14.79932952,.00004156,51.8952,180.8386,85.4362,274.6648,0,U,64522,999,5383,.26524414E-3,.1802E-4,0
KUIPER-00063,2025-134Z,2026-06-09T19:16:29.809920,14.79930807,.00005395,51.9011,190.7975,88.6175,271.4849,0,U,64523,999,5364,.27056778E-3,.1842E-4,0
KUIPER-00064,2025-134AA,2026-06-10T06:41:03.200928,14.79937877,.00004466,51.9015,186.1185,94.0986,266.0027,0,U,64524,999,5375,.28341578E-3,.194E-4,0
KUIPER-00065,2025-134AB,2026-06-10T06:33:18.545184,14.79926219,.00004703,51.9006,191.3099,91.0959,269.0057,0,U,64525,999,5366,-.20913224E-3,-.1815E-4,0
KUIPER-00066,2025-134AC,2026-06-10T04:07:15.530592,14.79922444,.00006155,51.9008,129.0412,57.9637,302.1385,0,U,64526,999,5454,-.17515695E-4,-.355E-5,0
COSMOS 2590,2025-131D,2026-06-10T08:48:24.289920,1.00233820,.3653301,0.4322,76.6894,24.1107,30.3831,0,U,64527,999,354,0,-.272E-5,0
GOOD ANCESTOR KILAKILA,2025-135A,2026-06-10T06:44:01.653216,15.23949249,.00046806,97.4619,276.5437,193.1612,166.9504,0,U,64528,999,5383,.31828266E-3,.7629E-4,0
GHGSAT-C12,2025-135B,2026-06-10T12:49:36.787584,15.20236678,.0004857,97.4739,276.3998,178.8334,181.2913,0,U,64529,999,5381,.14562758E-3,.3089E-4,0
DUTHSAT-2,2025-135C,2026-06-10T07:31:57.437472,15.26754477,.00046039,97.4609,277.2281,197.9495,162.1582,0,U,64530,999,5388,.45063345E-3,.1179E-3,0
TRANSPORTER-14 OBJECT D,2025-135D,2026-06-10T13:45:31.023936,15.26070434,.00046662,97.4705,277.7693,174.5288,185.6003,0,U,64531,999,5391,.3784312E-3,.9684E-4,0
TRANSPORTER-14 OBJECT E,2025-135E,2026-06-10T13:46:41.626560,15.26073965,.00047155,97.4722,277.8071,173.8897,186.2400,0,U,64532,999,5391,.37551124E-3,.961E-4,0
TPA-1,2025-135F,2026-06-10T13:29:42.919584,15.21381180,.00046697,97.4678,276.5532,196.6413,163.4670,0,U,64533,999,5384,.14098404E-3,.3091E-4,0
CONNECTA IOT-9,2025-135G,2026-06-10T01:50:23.906976,15.19908906,.00053762,97.4746,276.0212,178.5451,181.5801,0,U,64534,999,5374,.98495262E-4,.2047E-4,0
ROADS 1,2025-135H,2026-06-10T13:33:26.661024,15.22399642,.00043246,97.4666,276.6520,183.6567,176.4638,0,U,64535,999,5385,.22730858E-3,.5182E-4,0
FOSSASAT-2E21,2025-135J,2026-06-10T07:11:20.391648,15.19933112,.00037916,97.4639,275.6977,187.9711,172.1464,0,U,64536,999,5377,.12200315E-3,.2554E-4,0
OTTER PUP 2,2025-135K,2026-06-10T01:47:02.324544,15.22823726,.00031849,97.4723,276.6361,169.5516,190.5788,0,U,64537,999,5379,.18451761E-3,.4245E-4,0
IOD-2,2025-135L,2026-06-10T14:25:00.003072,15.20319292,.00045242,97.4692,276.2660,181.6365,178.4856,0,U,64538,999,5382,.17935797E-3,.383E-4,0
ELARASAT MMS-1,2025-135M,2026-06-10T14:24:01.835136,15.22828533,.00032773,97.4722,277.1593,172.9223,187.2060,0,U,64539,999,5387,.16606743E-3,.3814E-4,0
ARCSTONE,2025-135N,2026-06-10T14:03:53.028288,15.32464256,.00031137,97.4607,279.0390,193.1902,166.9259,0,U,64540,999,5402,.52029045E-3,.16249E-3,0
PULSAR-0,2025-135P,2026-06-10T13:43:39.135072,15.20223161,.00028099,97.4692,276.2850,177.5214,182.6035,0,U,64541,999,5382,.12799432E-3,.2705E-4,0
T1DES 1 (DRAGOON 1),2025-135Q,2026-06-10T13:23:35.247840,15.25782769,.00030349,97.4691,277.7364,170.8915,189.2379,0,U,64542,999,5391,.33224473E-3,.8417E-4,0
SKYBEE-A02,2025-135S,2026-06-10T13:15:44.390304,15.20064596,.00026001,97.4724,276.4478,136.7934,223.3505,0,U,64544,999,5382,.11791923E-3,.2475E-4,0
ION SCV-020,2025-135T,2026-06-10T13:56:55.110624,15.19422886,.00089184,97.4599,276.5954,169.1587,190.9842,0,U,64545,999,5384,.1374633E-3,.2845E-4,0
